SL-8 R/B                
1 21088U 91006B   26074.28855046  .00000067  00000+0  51376-4 0  9990
2 21088  82.9463 165.8838 0022746  23.1109  30.8833 13.77495047764840
OKEAN-3                 
1 21397U 91039A   26074.19805802  .00003617  00000+0  25362-3 0  9993
2 21397  82.5203 331.5079 0013433 316.7303  43.2868 15.04850927865864
COSMOS 2151             
1 21422U 91042A   26074.28641650  .00002592  00000+0  20531-3 0  9999
2 21422  82.4929  78.2756 0013655  46.5245 313.7112 15.00129587864035
SL-14 R/B               
1 21423U 91042B   26073.88969336  .00000571  00000+0  69170-4 0  9997
2 21423  82.4934 215.3063 0016083 220.3539 139.6483 14.81835772853844
ERS-1                   
1 21574U 91050A   26074.04967400  .00000357  00000+0  12884-3 0  9993
2 21574  98.7877  92.4189 0031925 184.4425 175.6483 14.39453968816504
ARIANE 40 R/B           
1 21610U 91050F   26074.15721950  .00000332  00000+0  11187-3 0  9992
2 21610  98.2001 126.1882 0004180  69.2472 290.9167 14.42898040819780
INTERCOSMOS 25          
1 21819U 91086A   26074.02360060  .00002255  00000+0  43508-3 0  9997
2 21819  82.6045 306.7843 1486858 105.4440 271.5351 12.12020019497335
SL-8 R/B                
1 21876U 92008B   26074.27095160  .00000011  00000+0 -43032-5 0  9991
2 21876  82.9221 263.6252 0035749 118.2107  55.0524 13.75969759710183
SL-8 R/B                
1 21938U 92020B   26074.29375800  .00000050  00000+0  36101-4 0  9998
2 21938  82.9328 149.6012 0027566 282.4442 141.7260 13.75549979701909
USA 81                  
1 21949U 92023A   26074.24741953  .00000175  00000+0  57350-4 0  9991
2 21949  85.0073 128.2347 0002311  72.7551 287.3894 14.32369835 95583
COSMOS 2219             
1 22219U 92076A   26074.25077800 -.00000028  00000+0  99632-5 0  9992
2 22219  71.0641   6.4436 0018658 199.3340 160.7077 14.14093725719165
SL-16 R/B               
1 22220U 92076B   26074.27524731  .00000017  00000+0  32085-4 0  9991
2 22220  71.0006 176.6087 0010530  86.0336 341.6978 14.16859222722621
COSMOS 2221             
1 22236U 92080A   26074.25505788  .00001814  00000+0  15827-3 0  9992
2 22236  82.5004 273.7488 0014528 168.4443 191.7115 14.96224807781627
SL-16 R/B               
1 22285U 92093B   26074.18110501 -.00000020  00000+0  13964-4 0  9997
2 22285  71.0240 352.7390 0006295 288.1062  71.9375 14.15447045713933
COSMOS 2228             
1 22286U 92094A   26074.26771795  .00002350  00000+0  20039-3 0  9993
2 22286  82.5160 231.9688 0016596 284.3124  75.6255 14.97221727776891
SL-16 R/B               
1 22566U 93016B   26074.08070442 -.00000131  00000+0 -42621-4 0  9999
2 22566  71.0082 203.8584 0012161 307.0266  52.9744 14.15309213702937
COSMOS 2242             
1 22626U 93024A   26074.25229021  .00002423  00000+0  21031-3 0  9998
2 22626  82.5150 261.3942 0014931 288.5362  71.4237 14.96573845781226
