[{"OBJECT_NAME":"SL-8 R/B","OBJECT_ID":"1991-006B","EPOCH":"2026-03-15T06:55:30.759744","MEAN_MOTION":13.77495047,"ECCENTRICITY":0.00227469,"INCLINATION":82.9463,"RA_OF_ASC_NODE":165.8838,"ARG_OF_PERICENTER":23.1109,"MEAN_ANOMALY":30.8833,"EPHEMERIS_TYPE":0,"CLASSIFICATION_TYPE":"U","NORAD_CAT_ID":21088,"ELEMENT_SET_NO":999,"REV_AT_EPOCH":76484,"BSTAR":5.1375824e-5,"MEAN_MOTION_DOT":6.7e-7,"MEAN_MOTION_DDOT":0},{"OBJECT_NAME":"OKEAN-3","OBJECT_ID":"1991-039A","EPOCH":"2026-03-15T04:45:12.212928","MEAN_MOTION":15.04850927,"ECCENTRICITY":0.00134332,"INCLINATION":82.5203,"RA_OF_ASC_NODE":331.5079,"ARG_OF_PERICENTER":316.7303,"MEAN_ANOMALY":43.2868,"EPHEMERIS_TYPE":0,"CLASSIFICATION_TYPE":"U","NORAD_CAT_ID":21397,"ELEMENT_SET_NO":999,"REV_AT_EPOCH":86586,"BSTAR":0.00025362019,"MEAN_MOTION_DOT":3.617e-5,"MEAN_MOTION_DDOT":0},{"OBJECT_NAME":"COSMOS 2151","OBJECT_ID":"1991-042A","EPOCH":"2026-03-15T06:52:26.385600","MEAN_MOTION":15.00129587,"ECCENTRICITY":0.00136557,"INCLINATION":82.4929,"RA_OF_ASC_NODE":78.2756,"ARG_OF_PERICENTER":46.5245,"MEAN_ANOMALY":313.7112,"EPHEMERIS_TYPE":0,"CLASSIFICATION_TYPE":"U","NORAD_CAT_ID":21422,"ELEMENT_SET_NO":999,"REV_AT_EPOCH":86403,"BSTAR":0.00020531412,"MEAN_MOTION_DOT":2.592e-5,"MEAN_MOTION_DDOT":0},{"OBJECT_NAME":"SL-14 R/B","OBJECT_ID":"1991-042B","EPOCH":"2026-03-14T21:21:09.506304","MEAN_MOTION":14.81835772,"ECCENTRICITY":0.00160833,"INCLINATION":82.4934,"RA_OF_ASC_NODE":215.3063,"ARG_OF_PERICENTER":220.3539,"MEAN_ANOMALY":139.6483,"EPHEMERIS_TYPE":0,"CLASSIFICATION_TYPE":"U","NORAD_CAT_ID":21423,"ELEMENT_SET_NO":999,"REV_AT_EPOCH":85384,"BSTAR":6.9169616e-5,"MEAN_MOTION_DOT":5.71e-6,"MEAN_MOTION_DDOT":0},{"OBJECT_NAME":"ERS-1","OBJECT_ID":"1991-050A","EPOCH":"2026-03-15T01:11:31.833600","MEAN_MOTION":14.39453968,"ECCENTRICITY":0.00319252,"INCLINATION":98.7877,"RA_OF_ASC_NODE":92.4189,"ARG_OF_PERICENTER":184.4425,"MEAN_ANOMALY":175.6483,"EPHEMERIS_TYPE":0,"CLASSIFICATION_TYPE":"U","NORAD_CAT_ID":21574,"ELEMENT_SET_NO":999,"REV_AT_EPOCH":81650,"BSTAR":0.00012883743,"MEAN_MOTION_DOT":3.57e-6,"MEAN_MOTION_DDOT":0},{"OBJECT_NAME":"ARIANE 40 R/B","OBJECT_ID":"1991-050F","EPOCH":"2026-03-15T03:46:23.764800","MEAN_MOTION":14.4289804,"ECCENTRICITY":0.00041809,"INCLINATION":98.2001,"RA_OF_ASC_NODE":126.1882,"ARG_OF_PERICENTER":69.2472,"MEAN_ANOMALY":290.9167,"EPHEMERIS_TYPE":0,"CLASSIFICATION_TYPE":"U","NORAD_CAT_ID":21610,"ELEMENT_SET_NO":999,"REV_AT_EPOCH":81978,"BSTAR":0.00011186932,"MEAN_MOTION_DOT":3.32e-6,"MEAN_MOTION_DDOT":0},{"OBJECT_NAME":"INTERCOSMOS 25","OBJECT_ID":"1991-086A","EPOCH":"2026-03-15T00:33:59.091840","MEAN_MOTION":12.12020019,"ECCENTRICITY":0.14868581,"INCLINATION":82.6045,"RA_OF_ASC_NODE":306.7843,"ARG_OF_PERICENTER":105.444,"MEAN_ANOMALY":271.5351,"EPHEMERIS_TYPE":0,"CLASSIFICATION_TYPE":"U","NORAD_CAT_ID":21819,"ELEMENT_SET_NO":999,"REV_AT_EPOCH":49733,"BSTAR":0.00043507998,"MEAN_MOTION_DOT":2.255e-5,"MEAN_MOTION_DDOT":0},{"OBJECT_NAME":"SL-8 R/B","OBJECT_ID":"1992-008B","EPOCH":"2026-03-15T06:30:10.218240","MEAN_MOTION":13.75969759,"ECCENTRICITY":0.00357498,"INCLINATION":82.9221,"RA_OF_ASC_NODE":263.6252,"ARG_OF_PERICENTER":118.2107,"MEAN_ANOMALY":55.0524,"EPHEMERIS_TYPE":0,"CLASSIFICATION_TYPE":"U","NORAD_CAT_ID":21876,"ELEMENT_SET_NO":999,"REV_AT_EPOCH":71018,"BSTAR":-4.303222e-6,"MEAN_MOTION_DOT":1.1e-7,"MEAN_MOTION_DDOT":0},{"OBJECT_NAME":"SL-8 R/B","OBJECT_ID":"1992-020B","EPOCH":"2026-03-15T07:03:00.691200","MEAN_MOTION":13.75549979,"ECCENTRICITY":0.00275667,"INCLINATION":82.9328,"RA_OF_ASC_NODE":149.6012,"ARG_OF_PERICENTER":282.4442,"MEAN_ANOMALY":141.726,"EPHEMERIS_TYPE":0,"CLASSIFICATION_TYPE":"U","NORAD_CAT_ID":21938,"ELEMENT_SET_NO":999,"REV_AT_EPOCH":70190,"BSTAR":3.6100649e-5,"MEAN_MOTION_DOT":5.0e-7,"MEAN_MOTION_DDOT":0},{"OBJECT_NAME":"USA 81","OBJECT_ID":"1992-023A","EPOCH":"2026-03-15T05:56:17.047392","MEAN_MOTION":14.32369835,"ECCENTRICITY":0.00023112,"INCLINATION":85.0073,"RA_OF_ASC_NODE":128.2347,"ARG_OF_PERICENTER":72.7551,"MEAN_ANOMALY":287.3894,"EPHEMERIS_TYPE":0,"CLASSIFICATION_TYPE":"U","NORAD_CAT_ID":21949,"ELEMENT_SET_NO":999,"REV_AT_EPOCH":9558,"BSTAR":5.7349716e-5,"MEAN_MOTION_DOT":1.75e-6,"MEAN_MOTION_DDOT":0},{"OBJECT_NAME":"COSMOS 2219","OBJECT_ID":"1992-076A","EPOCH":"2026-03-15T06:01:07.219200","MEAN_MOTION":14.14093725,"ECCENTRICITY":0.00186586,"INCLINATION":71.0641,"RA_OF_ASC_NODE":6.4436,"ARG_OF_PERICENTER":199.334,"MEAN_ANOMALY":160.7077,"EPHEMERIS_TYPE":0,"CLASSIFICATION_TYPE":"U","NORAD_CAT_ID":22219,"ELEMENT_SET_NO":999,"REV_AT_EPOCH":71916,"BSTAR":9.963166e-6,"MEAN_MOTION_DOT":-2.8e-7,"MEAN_MOTION_DDOT":0},{"OBJECT_NAME":"SL-16 R/B","OBJECT_ID":"1992-076B","EPOCH":"2026-03-15T06:36:21.367584","MEAN_MOTION":14.16859222,"ECCENTRICITY":0.00105301,"INCLINATION":71.0006,"RA_OF_ASC_NODE":176.6087,"ARG_OF_PERICENTER":86.0336,"MEAN_ANOMALY":341.6978,"EPHEMERIS_TYPE":0,"CLASSIFICATION_TYPE":"U","NORAD_CAT_ID":22220,"ELEMENT_SET_NO":999,"REV_AT_EPOCH":72262,"BSTAR":3.2085212e-5,"MEAN_MOTION_DOT":1.7e-7,"MEAN_MOTION_DDOT":0},{"OBJECT_NAME":"COSMOS 2221","OBJECT_ID":"1992-080A","EPOCH":"2026-03-15T06:07:17.000832","MEAN_MOTION":14.96224807,"ECCENTRICITY":0.0014528,"INCLINATION":82.5004,"RA_OF_ASC_NODE":273.7488,"ARG_OF_PERICENTER":168.4443,"MEAN_ANOMALY":191.7115,"EPHEMERIS_TYPE":0,"CLASSIFICATION_TYPE":"U","NORAD_CAT_ID":22236,"ELEMENT_SET_NO":999,"REV_AT_EPOCH":78162,"BSTAR":0.00015826684,"MEAN_MOTION_DOT":1.814e-5,"MEAN_MOTION_DDOT":0},{"OBJECT_NAME":"SL-16 R/B","OBJECT_ID":"1992-093B","EPOCH":"2026-03-15T04:20:47.472864","MEAN_MOTION":14.15447045,"ECCENTRICITY":0.00062955,"INCLINATION":71.024,"RA_OF_ASC_NODE":352.739,"ARG_OF_PERICENTER":288.1062,"MEAN_ANOMALY":71.9375,"EPHEMERIS_TYPE":0,"CLASSIFICATION_TYPE":"U","NORAD_CAT_ID":22285,"ELEMENT_SET_NO":999,"REV_AT_EPOCH":71393,"BSTAR":1.3963569e-5,"MEAN_MOTION_DOT":-2.0e-7,"MEAN_MOTION_DDOT":0},{"OBJECT_NAME":"COSMOS 2228","OBJECT_ID":"1992-094A","EPOCH":"2026-03-15T06:25:30.830880","MEAN_MOTION":14.97221727,"ECCENTRICITY":0.00165968,"INCLINATION":82.516,"RA_OF_ASC_NODE":231.9688,"ARG_OF_PERICENTER":284.3124,"MEAN_ANOMALY":75.6255,"EPHEMERIS_TYPE":0,"CLASSIFICATION_TYPE":"U","NORAD_CAT_ID":22286,"ELEMENT_SET_NO":999,"REV_AT_EPOCH":77689,"BSTAR":0.00020039328,"MEAN_MOTION_DOT":2.35e-5,"MEAN_MOTION_DDOT":0},{"OBJECT_NAME":"SL-16 R/B","OBJECT_ID":"1993-016B","EPOCH":"2026-03-15T01:56:12.861888","MEAN_MOTION":14.15309213,"ECCENTRICITY":0.00121614,"INCLINATION":71.0082,"RA_OF_ASC_NODE":203.8584,"ARG_OF_PERICENTER":307.0266,"MEAN_ANOMALY":52.9744,"EPHEMERIS_TYPE":0,"CLASSIFICATION_TYPE":"U","NORAD_CAT_ID":22566,"ELEMENT_SET_NO":999,"REV_AT_EPOCH":70293,"BSTAR":-4.2621175e-5,"MEAN_MOTION_DOT":-1.31e-6,"MEAN_MOTION_DDOT":0},{"OBJECT_NAME":"COSMOS 2242","OBJECT_ID":"1993-024A","EPOCH":"2026-03-15T06:03:17.874144","MEAN_MOTION":14.96573845,"ECCENTRICITY":0.00149313,"INCLINATION":82.515,"RA_OF_ASC_NODE":261.3942,"ARG_OF_PERICENTER":288.5362,"MEAN_ANOMALY":71.4237,"EPHEMERIS_TYPE":0,"CLASSIFICATION_TYPE":"U","NORAD_CAT_ID":22626,"ELEMENT_SET_NO":999,"REV_AT_EPOCH":78122,"BSTAR":0.00021031307,"MEAN_MOTION_DOT":2.423e-5,"MEAN_MOTION_DDOT":0}]
